{
  "type": "FeatureCollection",
  "features": [
    {
      "type": "Feature",
      "properties": {
        "norad_id": 66412,
        "name": "HULIANWANG DIGUI 13A",
        "group": "last-30-days",
        "lat": -49.47464818920072,
        "lon": 171.711828281416,
        "alt_km": 828.0040823727131,
        "timestamp": "2025-12-10T05:46:12.573907+00:00",
        "meta_object_name": "HULIANWANG DIGUI 13A",
        "meta_object_id": "2025-258A",
        "meta_epoch": "2025-12-08T08:38:10.619232",
        "meta_mean_motion": 14.20432847,
        "meta_eccentricity": 0.00076585,
        "meta_inclination": 50.0042,
        "meta_ra_of_asc_node": 280.4566,
        "meta_arg_of_pericenter": 343.0746,
        "meta_mean_anomaly": 16.9909,
        "meta_ephemeris_type": 0,
        "meta_classification_type": "U",
        "meta_norad_cat_id": 66412,
        "meta_element_set_no": 999,
        "meta_rev_at_epoch": 403,
        "meta_bstar": 0.00033138446,
        "meta_mean_motion_dot": 5.57e-06,
        "meta_mean_motion_ddot": 0,
        "tle_line1": "1 66412U 25258A   25342.35984513  .00000557  00000+0  33138-3 0  9992",
        "tle_line2": "2 66412  50.0042 280.4566 0007658 343.0746  16.9909 14.20432847  4032"
      },
      "geometry": {
        "type": "Point",
        "coordinates": [
          171.711828281416,
          -49.47464818920072
        ]
      }
    },
    {
      "type": "Feature",
      "properties": {
        "norad_id": 66413,
        "name": "HULIANWANG DIGUI 13B",
        "group": "last-30-days",
        "lat": -22.740660063670948,
        "lon": 113.26803785141267,
        "alt_km": 832.8125166903856,
        "timestamp": "2025-12-10T05:46:12.573959+00:00",
        "meta_object_name": "HULIANWANG DIGUI 13B",
        "meta_object_id": "2025-258B",
        "meta_epoch": "2025-12-08T20:40:52.882752",
        "meta_mean_motion": 14.19495379,
        "meta_eccentricity": 0.00049258,
        "meta_inclination": 49.9968,
        "meta_ra_of_asc_node": 278.4258,
        "meta_arg_of_pericenter": 347.5577,
        "meta_mean_anomaly": 12.5212,
        "meta_ephemeris_type": 0,
        "meta_classification_type": "U",
        "meta_norad_cat_id": 66413,
        "meta_element_set_no": 999,
        "meta_rev_at_epoch": 410,
        "meta_bstar": 0.00048755309,
        "meta_mean_motion_dot": 8.76e-06,
        "meta_mean_motion_ddot": 0,
        "tle_line1": "1 66413U 25258B   25342.86172318  .00000876  00000+0  48755-3 0  9996",
        "tle_line2": "2 66413  49.9968 278.4258 0004925 347.5577  12.5212 14.19495379  4101"
      },
      "geometry": {
        "type": "Point",
        "coordinates": [
          113.26803785141267,
          -22.740660063670948
        ]
      }
    },
    {
      "type": "Feature",
      "properties": {
        "norad_id": 66414,
        "name": "HULIANWANG DIGUI 13C",
        "group": "last-30-days",
        "lat": -34.466547302147845,
        "lon": 127.83255411661968,
        "alt_km": 833.3112825230664,
        "timestamp": "2025-12-10T05:46:12.573976+00:00",
        "meta_object_name": "HULIANWANG DIGUI 13C",
        "meta_object_id": "2025-258C",
        "meta_epoch": "2025-12-09T03:21:13.066848",
        "meta_mean_motion": 14.19246085,
        "meta_eccentricity": 0.00047063,
        "meta_inclination": 50.0081,
        "meta_ra_of_asc_node": 277.2503,
        "meta_arg_of_pericenter": 342.5024,
        "meta_mean_anomaly": 17.5724,
        "meta_ephemeris_type": 0,
        "meta_classification_type": "U",
        "meta_norad_cat_id": 66414,
        "meta_element_set_no": 999,
        "meta_rev_at_epoch": 414,
        "meta_bstar": 0.00041183983,
        "meta_mean_motion_dot": 7.11e-06,
        "meta_mean_motion_ddot": 0,
        "tle_line1": "1 66414U 25258C   25343.13973457  .00000711  00000+0  41184-3 0  9998",
        "tle_line2": "2 66414  50.0081 277.2503 0004706 342.5024  17.5724 14.19246085  4145"
      },
      "geometry": {
        "type": "Point",
        "coordinates": [
          127.83255411661968,
          -34.466547302147845
        ]
      }
    },
    {
      "type": "Feature",
      "properties": {
        "norad_id": 66415,
        "name": "HULIANWANG DIGUI 13D",
        "group": "last-30-days",
        "lat": -49.81042725291644,
        "lon": -171.055716565833,
        "alt_km": 826.8212874932642,
        "timestamp": "2025-12-10T05:46:12.573991+00:00",
        "meta_object_name": "HULIANWANG DIGUI 13D",
        "meta_object_id": "2025-258D",
        "meta_epoch": "2025-12-08T18:43:14.477088",
        "meta_mean_motion": 14.20669566,
        "meta_eccentricity": 0.00073015,
        "meta_inclination": 50.0039,
        "meta_ra_of_asc_node": 278.6799,
        "meta_arg_of_pericenter": 351.1938,
        "meta_mean_anomaly": 8.8844,
        "meta_ephemeris_type": 0,
        "meta_classification_type": "U",
        "meta_norad_cat_id": 66415,
        "meta_element_set_no": 999,
        "meta_rev_at_epoch": 409,
        "meta_bstar": 0.00031109029,
        "meta_mean_motion_dot": 5.16e-06,
        "meta_mean_motion_ddot": 0,
        "tle_line1": "1 66415U 25258D   25342.78002867  .00000516  00000+0  31109-3 0  9996",
        "tle_line2": "2 66415  50.0039 278.6799 0007301 351.1938   8.8844 14.20669566  4090"
      },
      "geometry": {
        "type": "Point",
        "coordinates": [
          -171.055716565833,
          -49.81042725291644
        ]
      }
    },
    {
      "type": "Feature",
      "properties": {
        "norad_id": 66416,
        "name": "HULIANWANG DIGUI 13E",
        "group": "last-30-days",
        "lat": -41.8233973311827,
        "lon": 141.32023726392924,
        "alt_km": 832.215560140512,
        "timestamp": "2025-12-10T05:46:12.574004+00:00",
        "meta_object_name": "HULIANWANG DIGUI 13E",
        "meta_object_id": "2025-258E",
        "meta_epoch": "2025-12-08T20:32:41.838720",
        "meta_mean_motion": 14.19737012,
        "meta_eccentricity": 0.00054325,
        "meta_inclination": 50.0065,
        "meta_ra_of_asc_node": 278.4193,
        "meta_arg_of_pericenter": 353.4979,
        "meta_mean_anomaly": 6.5861,
        "meta_ephemeris_type": 0,
        "meta_classification_type": "U",
        "meta_norad_cat_id": 66416,
        "meta_element_set_no": 999,
        "meta_rev_at_epoch": 410,
        "meta_bstar": 0.00052022301,
        "meta_mean_motion_dot": 9.5e-06,
        "meta_mean_motion_ddot": 0,
        "tle_line1": "1 66416U 25258E   25342.85603980  .00000950  00000+0  52022-3 0  9997",
        "tle_line2": "2 66416  50.0065 278.4193 0005432 353.4979   6.5861 14.19737012  4105"
      },
      "geometry": {
        "type": "Point",
        "coordinates": [
          141.32023726392924,
          -41.8233973311827
        ]
      }
    },
    {
      "type": "Feature",
      "properties": {
        "norad_id": 66417,
        "name": "HULIANWANG DIGUI 13F",
        "group": "last-30-days",
        "lat": -46.30461804181455,
        "lon": 154.0733442583421,
        "alt_km": 831.0534450735258,
        "timestamp": "2025-12-10T05:46:12.574016+00:00",
        "meta_object_name": "HULIANWANG DIGUI 13F",
        "meta_object_id": "2025-258F",
        "meta_epoch": "2025-12-08T20:30:02.663136",
        "meta_mean_motion": 14.19898124,
        "meta_eccentricity": 0.00049712,
        "meta_inclination": 50.0014,
        "meta_ra_of_asc_node": 278.3846,
        "meta_arg_of_pericenter": 352.5523,
        "meta_mean_anomaly": 7.5313,
        "meta_ephemeris_type": 0,
        "meta_classification_type": "U",
        "meta_norad_cat_id": 66417,
        "meta_element_set_no": 999,
        "meta_rev_at_epoch": 410,
        "meta_bstar": 0.0004539907,
        "meta_mean_motion_dot": 8.12e-06,
        "meta_mean_motion_ddot": 0,
        "tle_line1": "1 66417U 25258F   25342.85419749  .00000812  00000+0  45399-3 0  9992",
        "tle_line2": "2 66417  50.0014 278.3846 0004971 352.5523   7.5313 14.19898124  4101"
      },
      "geometry": {
        "type": "Point",
        "coordinates": [
          154.0733442583421,
          -46.30461804181455
        ]
      }
    },
    {
      "type": "Feature",
      "properties": {
        "norad_id": 66418,
        "name": "HULIANWANG DIGUI 13G",
        "group": "last-30-days",
        "lat": -48.53981396559425,
        "lon": -159.32297842932593,
        "alt_km": 826.5990864090845,
        "timestamp": "2025-12-10T05:46:12.574027+00:00",
        "meta_object_name": "HULIANWANG DIGUI 13G",
        "meta_object_id": "2025-258G",
        "meta_epoch": "2025-12-08T20:22:07.229856",
        "meta_mean_motion": 14.20510798,
        "meta_eccentricity": 0.00055793,
        "meta_inclination": 50.0031,
        "meta_ra_of_asc_node": 278.3586,
        "meta_arg_of_pericenter": 346.1381,
        "meta_mean_anomaly": 13.9377,
        "meta_ephemeris_type": 0,
        "meta_classification_type": "U",
        "meta_norad_cat_id": 66418,
        "meta_element_set_no": 999,
        "meta_rev_at_epoch": 410,
        "meta_bstar": 0.00039264944,
        "meta_mean_motion_dot": 6.91e-06,
        "meta_mean_motion_ddot": 0,
        "tle_line1": "1 66418U 25258G   25342.84869479  .00000691  00000+0  39265-3 0  9991",
        "tle_line2": "2 66418  50.0031 278.3586 0005579 346.1381  13.9377 14.20510798  4109"
      },
      "geometry": {
        "type": "Point",
        "coordinates": [
          -159.32297842932593,
          -48.53981396559425
        ]
      }
    }
  ]
}